[{"OBJECT_NAME":"LARETS","OBJECT_ID":"2003-042F","EPOCH":"2026-03-09T22:26:44.443104","MEAN_MOTION":14.6384865,"ECCENTRICITY":0.00120448,"INCLINATION":98.4017,"RA_OF_ASC_NODE":229.12,"ARG_OF_PERICENTER":351.8104,"MEAN_ANOMALY":8.2899,"EPHEMERIS_TYPE":0,"CLASSIFICATION_TYPE":"U","NORAD_CAT_ID":27944,"ELEMENT_SET_NO":999,"REV_AT_EPOCH":19884,"BSTAR":3.0475392e-5,"MEAN_MOTION_DOT":1.09e-6,"MEAN_MOTION_DDOT":0},{"OBJECT_NAME":"CZ-4B DEB","OBJECT_ID":"1999-057NF","EPOCH":"2026-03-08T02:59:06.102816","MEAN_MOTION":14.43200854,"ECCENTRICITY":0.00971388,"INCLINATION":98.631,"RA_OF_ASC_NODE":130.2732,"ARG_OF_PERICENTER":131.1723,"MEAN_ANOMALY":229.7897,"EPHEMERIS_TYPE":0,"CLASSIFICATION_TYPE":"U","NORAD_CAT_ID":28075,"ELEMENT_SET_NO":999,"REV_AT_EPOCH":71961,"BSTAR":0.00043218195,"MEAN_MOTION_DOT":1.491e-5,"MEAN_MOTION_DDOT":0}]
